KUIPER-00125            
1 65954U 25228H   25304.59869557  .00043184  00000+0  12711-2 0  9999
2 65954  51.8783 223.6036 0006004 201.7497 158.3234 15.34624040  3946
KUIPER-00126            
1 65955U 25228J   25304.60216279  .00037049  00000+0  11026-2 0  9990
2 65955  51.8786 223.6299 0006132 215.3858 144.6722 15.34346739  3941
KUIPER-00127            
1 65956U 25228K   25304.59502102  .00043021  00000+0  12539-2 0  9999
2 65956  51.8791 223.5836 0006480 195.3085 164.7705 15.34932200  3947
KUIPER-00128            
1 65957U 25228L   25304.59753747  .00062742  00000+0  18307-2 0  9993
2 65957  51.8792 223.6028 0006008 199.6233 160.4523 15.34731311  3942
KUIPER-00129            
1 65958U 25228M   25304.59713397 -.00091694  00000+0 -27148-2 0  9994
2 65958  51.8791 223.6005 0004266 211.4207 148.6525 15.34600098  3942
KUIPER-00130            
1 65959U 25228N   25304.59982281  .00033300  00000+0  98677-3 0  9999
2 65959  51.8783 223.6116 0005429 208.8754 151.1932 15.34538484  3946
KUIPER-00134            
1 65960U 25228P   25304.60099760  .00043328  00000+0  12830-2 0  9991
2 65960  51.8782 223.6190 0004796 213.5345 146.5337 15.34438412  3941
KUIPER-00135            
1 65961U 25228Q   25304.60061828  .00037096  00000+0  11014-2 0  9994
2 65961  51.8796 223.6245 0005295 201.1461 158.9306 15.34424179  3943
